[{"OBJECT_NAME":"JILIN-1 GAOFEN 03D50","OBJECT_ID":"2022-167J","EPOCH":"2026-03-09T22:35:59.947584","MEAN_MOTION":15.32279726,"ECCENTRICITY":0.00065764,"INCLINATION":97.6731,"RA_OF_ASC_NODE":232.9458,"ARG_OF_PERICENTER":101.1473,"MEAN_ANOMALY":259.0507,"EPHEMERIS_TYPE":0,"CLASSIFICATION_TYPE":"U","NORAD_CAT_ID":54690,"ELEMENT_SET_NO":999,"REV_AT_EPOCH":18014,"BSTAR":0.00049467973,"MEAN_MOTION_DOT":0.00015359,"MEAN_MOTION_DDOT":0},{"OBJECT_NAME":"STARLINK-34393","OBJECT_ID":"2025-144A","EPOCH":"2026-03-09T13:06:30.984480","MEAN_MOTION":15.30213538,"ECCENTRICITY":7.807e-5,"INCLINATION":53.1592,"RA_OF_ASC_NODE":181.4423,"ARG_OF_PERICENTER":122.2197,"MEAN_ANOMALY":237.888,"EPHEMERIS_TYPE":0,"CLASSIFICATION_TYPE":"U","NORAD_CAT_ID":64724,"ELEMENT_SET_NO":999,"REV_AT_EPOCH":3970,"BSTAR":0.00096377369,"MEAN_MOTION_DOT":0.00028306,"MEAN_MOTION_DDOT":0}]
